NORAD_CAT_ID,OBJECT_NAME,OBJECT_TYPE,EPOCH,MEAN_MOTION,ECCENTRICITY,INCLINATION,RA_OF_ASC_NODE,ARG_OF_PERICENTER,MEAN_ANOMALY,BSTAR,MEAN_MOTION_DOT,MEAN_MOTION_DDOT,TLE_LINE0,TLE_LINE1,TLE_LINE2,SEMIMAJOR_AXIS,PERIOD,APOGEE,PERIGEE,DECAYED
52472.0,STARLINK-3881,PAYLOAD,2023-09-14 03:36:22,15.0886554,0.0001372,53.2171,173.2251,96.0297,264.0852,0.00073687,0.00011467,0.0,0 STARLINK-3881,1 52472U 22049X   23257.15025811  .00011467  00000-0  73687-3 0  9992,2 52472  53.2171 173.2251 0001372  96.0297 264.0852 15.08865540 75403,6917.802,95.436,540.616,538.718,0.0
52472.0,STARLINK-3881,PAYLOAD,2023-09-15 01:51:46,15.08839862,0.0001335,53.2168,169.0581,94.1663,265.9482,0.0002778,4.136e-05,0.0,0 STARLINK-3881,1 52472U 22049X   23258.07762508  .00004136  00000-0  27780-3 0  9993,2 52472  53.2168 169.0581 0001335  94.1663 265.9482 15.08839862 75545,6917.881,95.438,540.669,538.822,0.0
52472.0,STARLINK-3881,PAYLOAD,2023-09-15 03:27:10,15.08840318,0.000147,53.2167,168.7609,81.8477,278.2682,0.00040233,6.121e-05,0.0,0 STARLINK-3881,1 52472U 22049X   23258.14386649  .00006121  00000-0  40233-3 0  9993,2 52472  53.2167 168.7609 0001470  81.8477 278.2682 15.08840318 75397,6917.879,95.438,540.761,538.727,0.0
52472.0,STARLINK-3881,PAYLOAD,2023-09-16 03:17:56,15.08859786,0.0001401,53.2162,164.3037,86.3557,273.7595,0.00093494,0.00014631,0.0,0 STARLINK-3881,1 52472U 22049X   23259.13746391  .00014631  00000-0  93494-3 0  9999,2 52472  53.2162 164.3037 0001401  86.3557 273.7595 15.08859786 75709,6917.82,95.436,540.654,538.716,0.0
52472.0,STARLINK-3881,PAYLOAD,2023-09-16 23:57:58,15.08844919,0.000152,53.216,160.4389,81.5742,278.5422,0.00032242,4.848e-05,0.0,0 STARLINK-3881,1 52472U 22049X   23259.99858893  .00004848  00000-0  32242-3 0  9997,2 52472  53.2160 160.4389 0001520  81.5742 278.5422 15.08844919 75837,6917.865,95.437,540.782,538.679,0.0
52472.0,STARLINK-3881,PAYLOAD,2023-09-17 12:41:03,15.08845428,0.0001633,53.2161,158.0604,81.7324,278.3853,0.00062623,9.694e-05,0.0,0 STARLINK-3881,1 52472U 22049X   23260.52851001  .00009694  00000-0  62623-3 0  9992,2 52472  53.2161 158.0604 0001633  81.7324 278.3853 15.08845428 75757,6917.864,95.437,540.858,538.599,0.0
52472.0,STARLINK-3881,PAYLOAD,2023-09-17 23:48:44,15.08853913,0.0001476,53.2168,155.9775,91.1651,268.951,0.0007477,0.00011636,0.0,0 STARLINK-3881,1 52472U 22049X   23260.99218500  .00011636  00000-0  74770-3 0  9999,2 52472  53.2168 155.9775 0001476  91.1651 268.9510 15.08853913 75823,6917.838,95.437,540.724,538.682,0.0
52472.0,STARLINK-3881,PAYLOAD,2023-09-18 20:28:45,15.08847023,0.0001225,53.2157,152.1133,74.6148,285.4979,0.00021294,3.103e-05,0.0,0 STARLINK-3881,1 52472U 22049X   23261.85330669  .00003103  00000-0  21294-3 0  9999,2 52472  53.2157 152.1133 0001225  74.6148 285.4979 15.08847023 75959,6917.859,95.437,540.571,538.876,0.0
52472.0,STARLINK-3881,PAYLOAD,2023-09-19 01:14:54,15.08852283,0.0001396,53.2161,151.221,96.2676,263.8475,0.00027797,4.14e-05,0.0,0 STARLINK-3881,1 52472U 22049X   23262.05202361  .00004140  00000-0  27797-3 0  9995,2 52472  53.2161 151.2210 0001396  96.2676 263.8475 15.08852283 76142,6917.843,95.437,540.674,538.742,0.0
52472.0,STARLINK-3881,PAYLOAD,2023-09-20 02:41:04,15.08854695,0.0001498,53.2163,146.462,106.5983,253.5173,0.00021597,3.152e-05,0.0,0 STARLINK-3881,1 52472U 22049X   23263.11185619  .00003152  00000-0  21597-3 0  9993,2 52472  53.2163 146.4620 0001498 106.5983 253.5173 15.08854695 76302,6917.835,95.437,540.737,538.664,0.0
52472.0,STARLINK-3881,PAYLOAD,2023-09-20 09:02:37,15.08841852,0.0001587,53.2163,145.2685,76.9306,283.1864,5.376e-06,-2.02e-06,0.0,0 STARLINK-3881,1 52472U 22049X   23263.37681934 -.00000202  00000-0  53760-5 0  9995,2 52472  53.2163 145.2685 0001587  76.9306 283.1864 15.08841852 76349,6917.875,95.437,540.838,538.642,0.0
52472.0,STARLINK-3881,PAYLOAD,2023-09-20 21:45:43,15.08815667,0.0001493,53.2164,142.8962,97.9108,262.2053,-0.00039943,-6.635e-05,0.0,0 STARLINK-3881,1 52472U 22049X   23263.90675658 -.00006635  00000-0 -39943-3 0  9992,2 52472  53.2164 142.8962 0001493  97.9108 262.2053 15.08815667 76264,6917.955,95.439,540.853,538.787,0.0
52472.0,STARLINK-3881,PAYLOAD,2023-09-21 00:56:30,15.08818668,0.0001569,53.2167,142.3018,94.4127,265.7044,-0.00029083,-4.911e-05,0.0,0 STARLINK-3881,1 52472U 22049X   23264.03923760 -.00004911  00000-0 -29083-3 0  9996,2 52472  53.2167 142.3018 0001569  94.4127 265.7044 15.08818668 76443,6917.946,95.439,540.896,538.725,0.0
52472.0,STARLINK-3881,PAYLOAD,2023-09-21 02:31:53,15.08821557,0.0001522,53.2165,142.003,91.6804,268.4363,-0.00020377,-3.528e-05,0.0,0 STARLINK-3881,1 52472U 22049X   23264.10547710 -.00003528  00000-0 -20377-3 0  9991,2 52472  53.2165 142.0030 0001522  91.6804 268.4363 15.08821557 76290,6917.937,95.439,540.855,538.749,0.0
52472.0,STARLINK-3881,PAYLOAD,2023-09-21 21:36:31,15.08838403,0.0001436,53.2162,138.4347,89.7428,270.3728,0.00025943,3.843e-05,0.0,0 STARLINK-3881,1 52472U 22049X   23264.90035951  .00003843  00000-0  25943-3 0  9990,2 52472  53.2162 138.4347 0001436  89.7428 270.3728 15.08838403 76410,6917.885,95.438,540.744,538.757,0.0
52472.0,STARLINK-3881,PAYLOAD,2023-09-22 00:47:17,15.08845278,0.0001415,53.2158,137.8387,81.5126,278.6027,0.00095294,0.00014913,0.0,0 STARLINK-3881,1 52472U 22049X   23265.03284253  .00014913  00000-0  95294-3 0  9992,2 52472  53.2158 137.8387 0001415  81.5126 278.6027 15.08845278 76594,6917.864,95.437,540.708,538.75,0.0
52472.0,STARLINK-3881,PAYLOAD,2023-09-22 21:27:17,15.08859011,0.0001487,53.2159,133.9725,76.5085,283.6073,0.00061127,9.459e-05,0.0,0 STARLINK-3881,1 52472U 22049X   23265.89395636  .00009459  00000-0  61127-3 0  9991,2 52472  53.2159 133.9725 0001487  76.5085 283.6073 15.08859011 76569,6917.822,95.436,540.716,538.659,0.0
52472.0,STARLINK-3881,PAYLOAD,2023-09-23 00:38:03,15.08867515,0.0001398,53.2159,133.3766,80.5652,279.5498,0.00082531,0.00012881,0.0,0 STARLINK-3881,1 52472U 22049X   23266.02643317  .00012881  00000-0  82531-3 0  9994,2 52472  53.2159 133.3766 0001398  80.5652 279.5498 15.08867515 76747,6917.796,95.436,540.628,538.694,0.0
52472.0,STARLINK-3881,PAYLOAD,2023-09-24 00:28:51,15.08845905,0.0001469,53.2166,128.917,72.7423,287.373,0.00022703,3.328e-05,0.0,0 STARLINK-3881,1 52472U 22049X   23267.02003694  .00003328  00000-0  22703-3 0  9994,2 52472  53.2166 128.9170 0001469  72.7423 287.3730 15.08845905 76893,6917.862,95.437,540.744,538.711,0.0
52472.0,STARLINK-3881,PAYLOAD,2023-09-24 19:33:28,15.08845868,0.0001397,53.2168,125.3474,72.9141,287.2004,0.00023557,3.464e-05,0.0,0 STARLINK-3881,1 52472U 22049X   23267.81491732  .00003464  00000-0  23557-3 0  9994,2 52472  53.2168 125.3474 0001397  72.9141 287.2004 15.08845868 77018,6917.862,95.437,540.694,538.761,0.0
52472.0,STARLINK-3881,PAYLOAD,2023-09-25 00:19:38,15.0884735,0.00014,53.217,124.4549,83.427,276.6882,0.0002908,4.344e-05,0.0,0 STARLINK-3881,1 52472U 22049X   23268.01363641  .00004344  00000-0  29080-3 0  9999,2 52472  53.2170 124.4549 0001400  83.4270 276.6882 15.08847350 76887,6917.858,95.437,540.691,538.754,0.0
52472.0,STARLINK-3881,PAYLOAD,2023-09-25 19:24:15,15.08849244,0.0001367,53.2167,120.8861,86.3229,273.7919,0.00026941,4.003e-05,0.0,0 STARLINK-3881,1 52472U 22049X   23268.80851426  .00004003  00000-0  26941-3 0  9994,2 52472  53.2167 120.8861 0001367  86.3229 273.7919 15.08849244 77006,6917.852,95.437,540.663,538.771,0.0
52472.0,STARLINK-3881,PAYLOAD,2023-09-26 20:50:26,15.08833539,0.0001552,53.2163,116.1283,102.0318,258.0848,-5.4431e-05,-1.154e-05,0.0,0 STARLINK-3881,1 52472U 22049X   23269.86836169 -.00001154  00000-0 -54431-4 0  9990,2 52472  53.2163 116.1283 0001552 102.0318 258.0848 15.08833539 77321,6917.9,95.438,540.839,538.691,0.0
52472.0,STARLINK-3881,PAYLOAD,2023-09-27 12:44:18,15.08833086,0.0001478,53.2165,113.1564,92.7224,267.3938,-4.4841e-06,-3.59e-06,0.0,0 STARLINK-3881,1 52472U 22049X   23270.53076742 -.00000359  00000-0 -44841-5 0  9990,2 52472  53.2165 113.1564 0001478  92.7224 267.3938 15.08833086 77263,6917.902,95.438,540.789,538.744,0.0
52472.0,STARLINK-3881,PAYLOAD,2023-09-27 23:52:01,15.08762154,0.0002022,53.2167,111.0746,98.667,261.4552,0.0012027,0.00018864,0.0,0 STARLINK-3881,1 52472U 22049X   23270.99446363  .00018864  00000-0  12027-2 0  9996,2 52472  53.2167 111.0746 0002022  98.6670 261.4552 15.08762154 77499,6918.118,95.442,541.382,538.584,0.0
52472.0,STARLINK-3881,PAYLOAD,2023-09-28 18:56:37,15.08843007,0.000148,53.2165,107.5057,101.4667,258.6491,0.00018498,2.657e-05,0.0,0 STARLINK-3881,1 52472U 22049X   23271.78931946  .00002657  00000-0  18498-3 0  9992,2 52472  53.2165 107.5057 0001480 101.4667 258.6491 15.08843007 77619,6917.871,95.437,540.76,538.712,0.0
52472.0,STARLINK-3881,PAYLOAD,2023-09-28 20:32:00,15.08846628,0.0001509,53.2173,107.2075,91.1082,269.0083,0.00021866,3.194e-05,0.0,0 STARLINK-3881,1 52472U 22049X   23271.85555681  .00003194  00000-0  21866-3 0  9998,2 52472  53.2173 107.2075 0001509  91.1082 269.0083 15.08846628 77461,6917.86,95.437,540.769,538.681,0.0
52472.0,STARLINK-3881,PAYLOAD,2023-09-28 23:42:46,15.08849252,0.0001522,53.217,106.6129,97.8115,262.305,0.00023605,3.472e-05,0.0,0 STARLINK-3881,1 52472U 22049X   23271.98803478  .00003472  00000-0  23605-3 0  9994,2 52472  53.2170 106.6129 0001522  97.8115 262.3050 15.08849252 77642,6917.852,95.437,540.77,538.664,0.0
52472.0,STARLINK-3881,PAYLOAD,2023-09-29 18:47:24,15.08842296,0.0001599,53.2173,103.0433,113.5514,246.5646,4.7052e-05,4.61e-06,0.0,0 STARLINK-3881,1 52472U 22049X   23272.78292366  .00000461  00000-0  47052-4 0  9999,2 52472  53.2173 103.0433 0001599 113.5514 246.5646 15.08842296 77766,6917.873,95.437,540.845,538.632,0.0
52472.0,STARLINK-3881,PAYLOAD,2023-09-29 20:22:47,15.08843392,0.0001414,53.2172,102.7468,87.7407,272.3747,6.7676e-05,7.89e-06,0.0,0 STARLINK-3881,1 52472U 22049X   23272.84916389  .00000789  00000-0  67676-4 0  9991,2 52472  53.2172 102.7468 0001414  87.7407 272.3747 15.08843392 77619,6917.87,95.437,540.713,538.757,0.0
